[{"OBJECT_NAME":"STARLINK-35714","OBJECT_ID":"2025-244J","EPOCH":"2026-03-09T21:08:25.424448","MEAN_MOTION":15.30210555,"ECCENTRICITY":9.954e-5,"INCLINATION":53.157,"RA_OF_ASC_NODE":229.3918,"ARG_OF_PERICENTER":53.1303,"MEAN_ANOMALY":306.9788,"EPHEMERIS_TYPE":0,"CLASSIFICATION_TYPE":"U","NORAD_CAT_ID":66214,"ELEMENT_SET_NO":999,"REV_AT_EPOCH":2168,"BSTAR":0.0011441748,"MEAN_MOTION_DOT":0.00033693,"MEAN_MOTION_DDOT":0},{"OBJECT_NAME":"CZ-4C R\/B","OBJECT_ID":"2022-069B","EPOCH":"2026-03-09T22:08:25.149120","MEAN_MOTION":15.31915595,"ECCENTRICITY":0.00471341,"INCLINATION":97.9961,"RA_OF_ASC_NODE":42.6953,"ARG_OF_PERICENTER":87.2467,"MEAN_ANOMALY":273.4166,"EPHEMERIS_TYPE":0,"CLASSIFICATION_TYPE":"U","NORAD_CAT_ID":52913,"ELEMENT_SET_NO":999,"REV_AT_EPOCH":20482,"BSTAR":0.00043675127,"MEAN_MOTION_DOT":0.00013855,"MEAN_MOTION_DDOT":0}]
